STARLINK-36607          
1 67620U 26020D   26039.50002314 -.01559454  00000+0 -79122-2 0  9993
2 67620  42.9995 319.7287 0001712 269.3945 227.8615 15.83361909  2690
STARLINK-36615          
1 67621U 26020E   26039.50002314 -.01352311  00000+0 -69617-2 0  9995
2 67621  42.9997 319.7379 0001872 275.9536 217.8030 15.83116718  2697
STARLINK-36614          
1 67622U 26020F   26039.50002314 -.01676937  00000+0 -85245-2 0  9994
2 67622  42.9995 319.7214 0001515 271.6073 228.5838 15.83549679  2698
STARLINK-36600          
1 67623U 26020G   26039.50002314 -.01734693  00000+0 -87842-2 0  9994
2 67623  42.9996 319.7126 0001255 280.5010 223.2783 15.83746210  2694
STARLINK-36439          
1 67624U 26020H   26039.50002314 -.01816712  00000+0 -89412-2 0  9993
2 67624  42.9995 319.7035 0001318 280.8102 226.5398 15.83969829  2699
STARLINK-36438          
1 67625U 26020J   26039.50002314 -.01809126  00000+0 -88385-2 0  9993
2 67625  42.9996 319.6947 0001239 274.2357 236.6410 15.84111255  2693
STARLINK-36436          
1 67626U 26020K   26039.50002314 -.01843666  00000+0 -88721-2 0  9995
2 67626  42.9996 319.6768 0001411 272.1284 245.8324 15.84475340  2697
STARLINK-36502          
1 67627U 26020L   26039.50002314 -.01715560  00000+0 -84621-2 0  9992
2 67627  42.9998 319.6864 0001416 269.4277 244.7728 15.84248614  2691
STARLINK-36532          
1 67628U 26020M   26039.50002314 -.01833490  00000+0 -86872-2 0  9996
2 67628  42.9997 319.6607 0001682 268.8479 255.4267 15.84775038  2690
STARLINK-36367          
1 67629U 26020N   26039.50002314 -.01834521  00000+0 -87433-2 0  9997
2 67629  42.9996 319.6670 0001464 273.4036 248.3459 15.84658850  2695
STARLINK-36416          
1 67630U 26020P   26039.50002314 -.01827776  00000+0 -86102-2 0  9995
2 67630  42.9995 319.6543 0001352 266.2304 260.5671 15.84888674  2690
STARLINK-36527          
1 67631U 26020Q   26039.50002314 -.01830329  00000+0 -85613-2 0  9990
2 67631  42.9999 319.6470 0001748 271.2057 258.6000 15.85032970  2699
