CCSDS_OMM_VERS = 2.0
CREATION_DATE  = 
ORIGINATOR     = 

OBJECT_NAME    = STARLINK-36607
OBJECT_ID      = 2026-020D
CENTER_NAME    = EARTH
REF_FRAME      = TEME
TIME_SYSTEM    = UTC
MEAN_ELEMENT_THEORY = SGP/SGP4

EPOCH          = 2026-02-08T12:00:01.999296
MEAN_MOTION    = 15.83361909
ECCENTRICITY   = .0001712
INCLINATION    = 42.9995
RA_OF_ASC_NODE = 319.7287
ARG_OF_PERICENTER = 269.3945
MEAN_ANOMALY   = 227.8615

EPHEMERIS_TYPE = 0
CLASSIFICATION_TYPE = U
NORAD_CAT_ID   = 67620
ELEMENT_SET_NO = 999
REV_AT_EPOCH   = 269
BSTAR          = -.79122E-2
MEAN_MOTION_DOT = -.1559454E-1
MEAN_MOTION_DDOT = 0

CCSDS_OMM_VERS = 2.0
CREATION_DATE  = 
ORIGINATOR     = 

OBJECT_NAME    = STARLINK-36615
OBJECT_ID      = 2026-020E
CENTER_NAME    = EARTH
REF_FRAME      = TEME
TIME_SYSTEM    = UTC
MEAN_ELEMENT_THEORY = SGP/SGP4

EPOCH          = 2026-02-08T12:00:01.999296
MEAN_MOTION    = 15.83116718
ECCENTRICITY   = .0001872
INCLINATION    = 42.9997
RA_OF_ASC_NODE = 319.7379
ARG_OF_PERICENTER = 275.9536
MEAN_ANOMALY   = 217.8030

EPHEMERIS_TYPE = 0
CLASSIFICATION_TYPE = U
NORAD_CAT_ID   = 67621
ELEMENT_SET_NO = 999
REV_AT_EPOCH   = 269
BSTAR          = -.69617E-2
MEAN_MOTION_DOT = -.1352311E-1
MEAN_MOTION_DDOT = 0

CCSDS_OMM_VERS = 2.0
CREATION_DATE  = 
ORIGINATOR     = 

OBJECT_NAME    = STARLINK-36614
OBJECT_ID      = 2026-020F
CENTER_NAME    = EARTH
REF_FRAME      = TEME
TIME_SYSTEM    = UTC
MEAN_ELEMENT_THEORY = SGP/SGP4

EPOCH          = 2026-02-08T12:00:01.999296
MEAN_MOTION    = 15.83549679
ECCENTRICITY   = .0001515
INCLINATION    = 42.9995
RA_OF_ASC_NODE = 319.7214
ARG_OF_PERICENTER = 271.6073
MEAN_ANOMALY   = 228.5838

EPHEMERIS_TYPE = 0
CLASSIFICATION_TYPE = U
NORAD_CAT_ID   = 67622
ELEMENT_SET_NO = 999
REV_AT_EPOCH   = 269
BSTAR          = -.85245E-2
MEAN_MOTION_DOT = -.1676937E-1
MEAN_MOTION_DDOT = 0

CCSDS_OMM_VERS = 2.0
CREATION_DATE  = 
ORIGINATOR     = 

OBJECT_NAME    = STARLINK-36600
OBJECT_ID      = 2026-020G
CENTER_NAME    = EARTH
REF_FRAME      = TEME
TIME_SYSTEM    = UTC
MEAN_ELEMENT_THEORY = SGP/SGP4

EPOCH          = 2026-02-08T12:00:01.999296
MEAN_MOTION    = 15.83746210
ECCENTRICITY   = .0001255
INCLINATION    = 42.9996
RA_OF_ASC_NODE = 319.7126
ARG_OF_PERICENTER = 280.5010
MEAN_ANOMALY   = 223.2783

EPHEMERIS_TYPE = 0
CLASSIFICATION_TYPE = U
NORAD_CAT_ID   = 67623
ELEMENT_SET_NO = 999
REV_AT_EPOCH   = 269
BSTAR          = -.87842E-2
MEAN_MOTION_DOT = -.1734693E-1
MEAN_MOTION_DDOT = 0

CCSDS_OMM_VERS = 2.0
CREATION_DATE  = 
ORIGINATOR     = 

OBJECT_NAME    = STARLINK-36439
OBJECT_ID      = 2026-020H
CENTER_NAME    = EARTH
REF_FRAME      = TEME
TIME_SYSTEM    = UTC
MEAN_ELEMENT_THEORY = SGP/SGP4

EPOCH          = 2026-02-08T12:00:01.999296
MEAN_MOTION    = 15.83969829
ECCENTRICITY   = .0001318
INCLINATION    = 42.9995
RA_OF_ASC_NODE = 319.7035
ARG_OF_PERICENTER = 280.8102
MEAN_ANOMALY   = 226.5398

EPHEMERIS_TYPE = 0
CLASSIFICATION_TYPE = U
NORAD_CAT_ID   = 67624
ELEMENT_SET_NO = 999
REV_AT_EPOCH   = 269
BSTAR          = -.89412E-2
MEAN_MOTION_DOT = -.1816712E-1
MEAN_MOTION_DDOT = 0

CCSDS_OMM_VERS = 2.0
CREATION_DATE  = 
ORIGINATOR     = 

OBJECT_NAME    = STARLINK-36438
OBJECT_ID      = 2026-020J
CENTER_NAME    = EARTH
REF_FRAME      = TEME
TIME_SYSTEM    = UTC
MEAN_ELEMENT_THEORY = SGP/SGP4

EPOCH          = 2026-02-08T12:00:01.999296
MEAN_MOTION    = 15.84111255
ECCENTRICITY   = .0001239
INCLINATION    = 42.9996
RA_OF_ASC_NODE = 319.6947
ARG_OF_PERICENTER = 274.2357
MEAN_ANOMALY   = 236.6410

EPHEMERIS_TYPE = 0
CLASSIFICATION_TYPE = U
NORAD_CAT_ID   = 67625
ELEMENT_SET_NO = 999
REV_AT_EPOCH   = 269
BSTAR          = -.88385E-2
MEAN_MOTION_DOT = -.1809126E-1
MEAN_MOTION_DDOT = 0

CCSDS_OMM_VERS = 2.0
CREATION_DATE  = 
ORIGINATOR     = 

OBJECT_NAME    = STARLINK-36436
OBJECT_ID      = 2026-020K
CENTER_NAME    = EARTH
REF_FRAME      = TEME
TIME_SYSTEM    = UTC
MEAN_ELEMENT_THEORY = SGP/SGP4

EPOCH          = 2026-02-08T12:00:01.999296
MEAN_MOTION    = 15.84475340
ECCENTRICITY   = .0001411
INCLINATION    = 42.9996
RA_OF_ASC_NODE = 319.6768
ARG_OF_PERICENTER = 272.1284
MEAN_ANOMALY   = 245.8324

EPHEMERIS_TYPE = 0
CLASSIFICATION_TYPE = U
NORAD_CAT_ID   = 67626
ELEMENT_SET_NO = 999
REV_AT_EPOCH   = 269
BSTAR          = -.88721E-2
MEAN_MOTION_DOT = -.1843666E-1
MEAN_MOTION_DDOT = 0

CCSDS_OMM_VERS = 2.0
CREATION_DATE  = 
ORIGINATOR     = 

OBJECT_NAME    = STARLINK-36502
OBJECT_ID      = 2026-020L
CENTER_NAME    = EARTH
REF_FRAME      = TEME
TIME_SYSTEM    = UTC
MEAN_ELEMENT_THEORY = SGP/SGP4

EPOCH          = 2026-02-08T12:00:01.999296
MEAN_MOTION    = 15.84248614
ECCENTRICITY   = .0001416
INCLINATION    = 42.9998
RA_OF_ASC_NODE = 319.6864
ARG_OF_PERICENTER = 269.4277
MEAN_ANOMALY   = 244.7728

EPHEMERIS_TYPE = 0
CLASSIFICATION_TYPE = U
NORAD_CAT_ID   = 67627
ELEMENT_SET_NO = 999
REV_AT_EPOCH   = 269
BSTAR          = -.84621E-2
MEAN_MOTION_DOT = -.171556E-1
MEAN_MOTION_DDOT = 0

CCSDS_OMM_VERS = 2.0
CREATION_DATE  = 
ORIGINATOR     = 

OBJECT_NAME    = STARLINK-36532
OBJECT_ID      = 2026-020M
CENTER_NAME    = EARTH
REF_FRAME      = TEME
TIME_SYSTEM    = UTC
MEAN_ELEMENT_THEORY = SGP/SGP4

EPOCH          = 2026-02-08T12:00:01.999296
MEAN_MOTION    = 15.84775038
ECCENTRICITY   = .0001682
INCLINATION    = 42.9997
RA_OF_ASC_NODE = 319.6607
ARG_OF_PERICENTER = 268.8479
MEAN_ANOMALY   = 255.4267

EPHEMERIS_TYPE = 0
CLASSIFICATION_TYPE = U
NORAD_CAT_ID   = 67628
ELEMENT_SET_NO = 999
REV_AT_EPOCH   = 269
BSTAR          = -.86872E-2
MEAN_MOTION_DOT = -.183349E-1
MEAN_MOTION_DDOT = 0

CCSDS_OMM_VERS = 2.0
CREATION_DATE  = 
ORIGINATOR     = 

OBJECT_NAME    = STARLINK-36367
OBJECT_ID      = 2026-020N
CENTER_NAME    = EARTH
REF_FRAME      = TEME
TIME_SYSTEM    = UTC
MEAN_ELEMENT_THEORY = SGP/SGP4

EPOCH          = 2026-02-08T12:00:01.999296
MEAN_MOTION    = 15.84658850
ECCENTRICITY   = .0001464
INCLINATION    = 42.9996
RA_OF_ASC_NODE = 319.6670
ARG_OF_PERICENTER = 273.4036
MEAN_ANOMALY   = 248.3459

EPHEMERIS_TYPE = 0
CLASSIFICATION_TYPE = U
NORAD_CAT_ID   = 67629
ELEMENT_SET_NO = 999
REV_AT_EPOCH   = 269
BSTAR          = -.87433E-2
MEAN_MOTION_DOT = -.1834521E-1
MEAN_MOTION_DDOT = 0

CCSDS_OMM_VERS = 2.0
CREATION_DATE  = 
ORIGINATOR     = 

OBJECT_NAME    = STARLINK-36416
OBJECT_ID      = 2026-020P
CENTER_NAME    = EARTH
REF_FRAME      = TEME
TIME_SYSTEM    = UTC
MEAN_ELEMENT_THEORY = SGP/SGP4

EPOCH          = 2026-02-08T12:00:01.999296
MEAN_MOTION    = 15.84888674
ECCENTRICITY   = .0001352
INCLINATION    = 42.9995
RA_OF_ASC_NODE = 319.6543
ARG_OF_PERICENTER = 266.2304
MEAN_ANOMALY   = 260.5671

EPHEMERIS_TYPE = 0
CLASSIFICATION_TYPE = U
NORAD_CAT_ID   = 67630
ELEMENT_SET_NO = 999
REV_AT_EPOCH   = 269
BSTAR          = -.86102E-2
MEAN_MOTION_DOT = -.1827776E-1
MEAN_MOTION_DDOT = 0

CCSDS_OMM_VERS = 2.0
CREATION_DATE  = 
ORIGINATOR     = 

OBJECT_NAME    = STARLINK-36527
OBJECT_ID      = 2026-020Q
CENTER_NAME    = EARTH
REF_FRAME      = TEME
TIME_SYSTEM    = UTC
MEAN_ELEMENT_THEORY = SGP/SGP4

EPOCH          = 2026-02-08T12:00:01.999296
MEAN_MOTION    = 15.85032970
ECCENTRICITY   = .0001748
INCLINATION    = 42.9999
RA_OF_ASC_NODE = 319.6470
ARG_OF_PERICENTER = 271.2057
MEAN_ANOMALY   = 258.6000

EPHEMERIS_TYPE = 0
CLASSIFICATION_TYPE = U
NORAD_CAT_ID   = 67631
ELEMENT_SET_NO = 999
REV_AT_EPOCH   = 269
BSTAR          = -.85613E-2
MEAN_MOTION_DOT = -.1830329E-1
MEAN_MOTION_DDOT = 0

